[
{"postalCode": "055417", "state": "ANTIOQUIA", "city": "ITAGÜI", "locType": "Rural", "boroughs": "Sin Informacion de Barrios", "otherBoroughs": "El Jardín, La Verde"},
{"postalCode": "055420", "state": "ANTIOQUIA", "city": "ENVIGADO", "locType": "Urbano", "boroughs": "Alto de Misael, El Chocho, El Esmeraldal, La Inmaculada, La Pradera, La Sebastiana, Las Flores, Las Orquídeas, Loma de Las Brujas, Loma del Atravesado, Los Naranjos, Mesa, San José, Uribe Ángel, Zúñiga", "otherBoroughs": "Sin Informacion de Veredas"},
{"postalCode": "055422", "state": "ANTIOQUIA", "city": "ENVIGADO", "locType": "Urbano", "boroughs": "Alcalá, Bosques de Zúñiga, Bucarest, Centro, El Portal, Jardínes, La Magnolia, La Primavera, La Santa Cruz, Las Casitas, Las Vegas, Milán Vallejuelos, Obrero, Pontevedra, San Marcos, Villagrande", "otherBoroughs": "Sin Informacion de Veredas"},
{"postalCode": "055428", "state": "ANTIOQUIA", "city": "ENVIGADO", "locType": "Rural", "boroughs": "Sin Informacion de Barrios", "otherBoroughs": "Sin Informacion de Veredas"},
{"postalCode": "050048", "state": "ANTIOQUIA", "city": "MEDELLIN", "locType": "Rural", "boroughs": "Sin Informacion de Barrios", "otherBoroughs": "La Aldea, La Esmeralda,  La Frisola,  La Sucia,  La Suiza,  Los Pomos,  Potrera Miserenga"},
{"postalCode": "050029", "state": "ANTIOQUIA", "city": "MEDELLIN", "locType": "Rural", "boroughs": "Sin Informacion de Barrios", "otherBoroughs": "Área de Expansión San Antonio de Prado, Buga Patio Bonito,  El Salado,  San José"},
{"postalCode": "050027", "state": "ANTIOQUIA", "city": "MEDELLIN", "locType": "Rural", "boroughs": "Sin Informacion de Barrios", "otherBoroughs": "Aguas Frías"},
{"postalCode": "050047", "state": "ANTIOQUIA", "city": "MEDELLIN", "locType": "Rural", "boroughs": "Monteclaro, Pajarito", "otherBoroughs": "Sin Informacion de Veredas"},
{"postalCode": "050028", "state": "ANTIOQUIA", "city": "MEDELLIN", "locType": "Rural", "boroughs": "Sin Informacion de Barrios", "otherBoroughs": "Sin Informacion de Veredas"},
{"postalCode": "050007", "state": "ANTIOQUIA", "city": "MEDELLIN", "locType": "Rural", "boroughs": "Sin Informacion de Barrios", "otherBoroughs": "Barro Blanco, La Honda"},
{"postalCode": "050018", "state": "ANTIOQUIA", "city": "MEDELLIN", "locType": "Rural", "boroughs": "Sin Informacion de Barrios", "otherBoroughs": "Sin Informacion de Veredas"},
{"postalCode": "051057", "state": "ANTIOQUIA", "city": "BELLO", "locType": "Rural", "boroughs": "Sin Informacion de Barrios", "otherBoroughs": "Sin Informacion de Veredas"},
{"postalCode": "051051", "state": "ANTIOQUIA", "city": "BELLO", "locType": "Urbano", "boroughs": "Acevedo, Acevedo Bello, Alcalá, Fontiqueño, La Camila, La Estación, La Gabriela, Las Vegas, Santa Rita, Zamora, Zona Industrial No 2, Zona Industrial No 3", "otherBoroughs": "Sin Informacion de Veredas"},
{"postalCode": "051052", "state": "ANTIOQUIA", "city": "BELLO", "locType": "Urbano", "boroughs": "El Cafetal, José Antonio Galán, La Esmeralda, La Florida, La Gran Avenida, La Madera, La Pradera, Las Cabañas, Las Cabañitas, Los Sauces, Maruchenga, Nuevo, París, Salvador Allende", "otherBoroughs": "Sin Informacion de Veredas"},
{"postalCode": "055467", "state": "ANTIOQUIA", "city": "LA ESTRELLA", "locType": "Rural", "boroughs": "Sin Informacion de Barrios", "otherBoroughs": "Sin Informacion de Veredas"},
{"postalCode": "054058", "state": "ANTIOQUIA", "city": "GUARNE", "locType": "Rural", "boroughs": "Sin Informacion de Barrios", "otherBoroughs": "Canoas"},
{"postalCode": "055817", "state": "ANTIOQUIA", "city": "EBEJICO", "locType": "Rural", "boroughs": "Sin Informacion de Barrios", "otherBoroughs": "Alto El Brasil, Blanquizal,  Comunidad,  El Cedro,  La Quiebra,  Las Brisas,  Nariño,  Santander,  Zarzal"},
{"postalCode": "055837", "state": "ANTIOQUIA", "city": "ANGELOPOLIS", "locType": "Rural", "boroughs": "Sin Informacion de Barrios", "otherBoroughs": "Cabecera Municipal, Cascajala,  Chuscal,  Cienaguita,  El Barro,  El Cano,  El Guayabo,  Guamal,  La Clara,  La Florida,  La Horcona,  La Valeria,  Montañita,  Palo Blanco,  Potrerito,  Promisión,  Pueblito,  Pueblo Viejo,  Pueblo Viejo,  San Isidro,  San"},
{"postalCode": "051058", "state": "ANTIOQUIA", "city": "BELLO", "locType": "Rural", "boroughs": "Sin Informacion de Barrios", "otherBoroughs": "Boquerón, Cabecera Municipal,  Cabecera Municipal,  El Carmelo,  El Carmelo,  El Picacho,  Guasimalito Tierradentro,  La China,  La Ilusión,  La Unión,  Llano de Ovejas,  Monte Frío,  Ovejas,  Palmitas Sector Central,  Potreritos,  Primavera,  Sabanalarga"},
{"postalCode": "051048", "state": "ANTIOQUIA", "city": "COPACABANA", "locType": "Rural", "boroughs": "Las Canteras", "otherBoroughs": "Alto de la Virgen, Alvarado,  Ancón,  Cabecera Municipal,  Cabuyal,  El Convento,  El Salado,  El Totumo,  Fontidueño,  Granizal,  Juan Cojo,  La Pastorcita,  Manga Arriba,  Montañita,  Peñolcito,  Piedras Blancas,  Piedras Blancas - Matasano,  Quebrada A"},
{"postalCode": "055427", "state": "ANTIOQUIA", "city": "ENVIGADO", "locType": "Rural", "boroughs": "Sin Informacion de Barrios", "otherBoroughs": "Cabecera Municipal, Carrizales,  El Escobero,  La Doctora,  La Miel,  Las Palmas,  Las Palmas,  María Auxiliadora,  Normandía,  Normandía,  Santa Catalina"},
{"postalCode": "055827", "state": "ANTIOQUIA", "city": "HELICONIA", "locType": "Rural", "boroughs": "Sin Informacion de Barrios", "otherBoroughs": "Cabecera Municipal, El Chocho,  El Hatillo,  El Hatillo,  Joly - Tablazo,  La Aguada,  La Chorrera,  La Suiza,  Los Botes,  Monteadentro,  Morritos"},
{"postalCode": "054047", "state": "ANTIOQUIA", "city": "RIONEGRO", "locType": "Rural", "boroughs": "Sin Informacion de Barrios", "otherBoroughs": "Abreito, Abreo,  Aeropuerto,  Barro Blanco,  Cabecera Municipal,  Chachafruto,  Chipre,  Cuchillas de San José,  El Carmín,  El Cerro,  Galicia,  La Asunción,  La Baja,  La Convención,  La Mosquita,  La Mosquita,  La Primavera,  La Quiebra,  Las Hojas,  L"},
{"postalCode": "051077", "state": "ANTIOQUIA", "city": "SAN JERONIMO", "locType": "Rural", "boroughs": "Sin Informacion de Barrios", "otherBoroughs": "Agua Mala, Alto Colorado,  Buenos Aires Parte Alta,  Buenos Aires Parte Baja,  El Calvario,  El Cedral,  El Golfo,  El Guaico,  El Guasimo,  El Mestizo,  El Retiro,  El Rincón,  El Ruano,  Espiritu Santo,  Juntas,  La Cienaga,  La Clara Arriba,  La Empali"},
{"postalCode": "050003", "state": "ANTIOQUIA", "city": "MEDELLIN", "locType": "Urbano", "boroughs": "Granizal, La Rosa, Moscú No.1, Moscú No.2, San Pablo, Santa Cruz, Villa Guadalupe", "otherBoroughs": "Sin Informacion de Veredas"},
{"postalCode": "050004", "state": "ANTIOQUIA", "city": "MEDELLIN", "locType": "Urbano", "boroughs": "Aranjuez, Berlin, Bermejal-Los Alamos, La piñuela, Palermo, San Isidro", "otherBoroughs": "Sin Informacion de Veredas"},
{"postalCode": "050006", "state": "ANTIOQUIA", "city": "MEDELLIN", "locType": "Urbano", "boroughs": "Brasilia, Campo Valdés No.1, Las Esmeraldas, Miranda, Moravia", "otherBoroughs": "Sin Informacion de Veredas"},
{"postalCode": "050005", "state": "ANTIOQUIA", "city": "MEDELLIN", "locType": "Urbano", "boroughs": "Campo Valdés No.2, La Salle, Las Granjas, María Cano-Carambolas, Oriente, San José La Cima No.1, San José La Cima No.2, Santa Inés", "otherBoroughs": "Sin Informacion de Veredas"},
{"postalCode": "050010", "state": "ANTIOQUIA", "city": "MEDELLIN", "locType": "Urbano", "boroughs": "El Chagualo, Estación Villa, Hospital San Vicente de Paúl, Jardín Botánico, Jesús Nazareno, Manrique Central No.1, Parque Norte, San Benito, San Pedro, Sevilla, Universidad de Antioquia", "otherBoroughs": "Sin Informacion de Veredas"},
{"postalCode": "050011", "state": "ANTIOQUIA", "city": "MEDELLIN", "locType": "Urbano", "boroughs": "Batallón Girardot, El Pomar, El Raizal, La Cruz, Manrique Central No.2, Manrique Oriental, Versalles No.1, Versalles No.2", "otherBoroughs": "Sin Informacion de Veredas"},
{"postalCode": "050015", "state": "ANTIOQUIA", "city": "MEDELLIN", "locType": "Urbano", "boroughs": "Calle Nueva, Centro Administrativo, Corazón de Jesús, Guayaquil, La Alpujarra, Perpetuo Socorro", "otherBoroughs": "Sin Informacion de Veredas"},
{"postalCode": "050012", "state": "ANTIOQUIA", "city": "MEDELLIN", "locType": "Urbano", "boroughs": "Boston, La Candelaria, La Mansión, Los Ángeles, Prado, San Miguel, Villa Hermosa, Villa Nueva", "otherBoroughs": "Sin Informacion de Veredas"},
{"postalCode": "050013", "state": "ANTIOQUIA", "city": "MEDELLIN", "locType": "Urbano", "boroughs": "Barrio Caycedo, El Pinal, Enciso, La Ladera, La Libertad, LLanaditas, Los Mangos, Sucre, Trece de Noviembre", "otherBoroughs": "Sin Informacion de Veredas"},
{"postalCode": "050014", "state": "ANTIOQUIA", "city": "MEDELLIN", "locType": "Urbano", "boroughs": "Alejandro Echavarría, Barrios de Jesús, Juan Pablo II, La Sierra, Las Estancias, Ocho de Marzo, San Antonio, Villa Lilliam, Villa Turbay, Villatina, Calle Nueva", "otherBoroughs": "Media Luna"},
{"postalCode": "050044", "state": "ANTIOQUIA", "city": "MEDELLIN", "locType": "Urbano", "boroughs": "Boyacá, Florencia, Héctor Abad Gómez, Las Brisas, Plaza de Ferias, Santander, Tejelo, Toscana", "otherBoroughs": "Sin Informacion de Veredas"},
{"postalCode": "050037", "state": "ANTIOQUIA", "city": "MEDELLIN", "locType": "Rural", "boroughs": "Sin Informacion de Barrios", "otherBoroughs": "El Astillero, El Llano,  El Patio,  El Uvito,  La Cuchilla,  Naranjal,  Volcana Guayabal"},
{"postalCode": "050002", "state": "ANTIOQUIA", "city": "MEDELLIN", "locType": "Urbano", "boroughs": "Aldea Pablo VI, Carpinelo, El Compromiso, La Avanzada, La Esperanza No.2, Popular, Santo Domingo Savio No.1, Santo Domingo Savio No.2", "otherBoroughs": "Sin Informacion de Veredas"},
{"postalCode": "050023", "state": "ANTIOQUIA", "city": "MEDELLIN", "locType": "Urbano", "boroughs": "El Rincón, El Rodeo, Guayabal, La Colina, La Hondonada, La Mota", "otherBoroughs": "San José del Manzanillo"},
{"postalCode": "055411", "state": "ANTIOQUIA", "city": "ITAGÜI", "locType": "Urbano", "boroughs": "La Esmeralda, San Fernando, Santa María No 2, Santa María No 3, Simón Bolívar", "otherBoroughs": "Sin Informacion de Veredas"},
{"postalCode": "050016", "state": "ANTIOQUIA", "city": "MEDELLIN", "locType": "Urbano", "boroughs": "Asomadera No.1, Barrio Colón, Bomboná No.1, Buenos Aires, El Salvador, Gerona, Las Palmas, San Diego", "otherBoroughs": "Sin Informacion de Veredas"},
{"postalCode": "050020", "state": "ANTIOQUIA", "city": "MEDELLIN", "locType": "Urbano", "boroughs": "Bomboná No.2, Cataluña, La Milagrosa, Loreto, Los Cerros El Vergel, Miraflores", "otherBoroughs": "Sin Informacion de Veredas"},
{"postalCode": "050021", "state": "ANTIOQUIA", "city": "MEDELLIN", "locType": "Urbano", "boroughs": "Altos del Poblado, Asomadera No.2, Asomadera No.3, Barrio Colombia, Castropol, El Poblado, El Tesoro, La Florida, Lalinde, Las Lomas No.1, Las Lomas No.2, Manila, Villa Carlota", "otherBoroughs": "Sin Informacion de Veredas"},
{"postalCode": "050024", "state": "ANTIOQUIA", "city": "MEDELLIN", "locType": "Urbano", "boroughs": "Campo Amor, Cristo Rey, Parque Juan Pablo II, Santa Fé, Tenche, Trinidad", "otherBoroughs": "Sin Informacion de Veredas"},
{"postalCode": "050025", "state": "ANTIOQUIA", "city": "MEDELLIN", "locType": "Urbano", "boroughs": "Diego Echavarría, Granada, Las Playas, San Bernardo", "otherBoroughs": "Sin Informacion de Veredas"},
{"postalCode": "050026", "state": "ANTIOQUIA", "city": "MEDELLIN", "locType": "Urbano", "boroughs": "Altavista, Area de Expansión Altavista, La Gloria, La Loma de Los Bernal, La Palma, Las Violetas, Los Alpes", "otherBoroughs": "Altavista Sector Central, Área de Expansión Altavista,  Área de Expansión Belén Rincón,  La Esperanza,  San Pablo"},
{"postalCode": "050030", "state": "ANTIOQUIA", "city": "MEDELLIN", "locType": "Urbano", "boroughs": "Belén, Cerro Nutibara, El Nogal-Los Almendros, Fátima, Los Conquistadores, Miravalle, Rosales", "otherBoroughs": "Sin Informacion de Veredas"},
{"postalCode": "050031", "state": "ANTIOQUIA", "city": "MEDELLIN", "locType": "Urbano", "boroughs": "Bolivariana, El Velódromo, Florida Nueva, Las Acacias, Laureles, Lorena, Los Pinos, Naranjal, San Joaquín, U.P.B", "otherBoroughs": "Sin Informacion de Veredas"},
{"postalCode": "050032", "state": "ANTIOQUIA", "city": "MEDELLIN", "locType": "Urbano", "boroughs": "Barrio Cristóbal, Belencito, Campo Alegre, El Danubio, La América, La Castellana, La Floresta, Las Mercedes, Nueva Villa del Aburrá, Santa Mónica, Santa Teresita, Simón Bolívar", "otherBoroughs": "Sin Informacion de Veredas"},
{"postalCode": "050033", "state": "ANTIOQUIA", "city": "MEDELLIN", "locType": "Urbano", "boroughs": "Antonio Nariño, Betania, Eduardo Santos, El Corazón, El Salado, El Socorro, Las Independencias, Nuevos Conquistadores, San Javier No.1, San Javier No.2, Santa Lucía, Veinte de Julio", "otherBoroughs": "Eduardo Santos, El Corazón El Morro,  La Loma"},
{"postalCode": "050034", "state": "ANTIOQUIA", "city": "MEDELLIN", "locType": "Urbano", "boroughs": "Altamira, Batallón Cuarta Brigada, Bosques de San Pablo, Caribe, Carlos E. Restrepo, Cerro El Volador, Cuarta Brigada, Ecoparque Cerro El Volador, Estadio, Facultad de Minas U. Nacional, Facultad Veterinaria y Zootecnia U.de.A., La Pilarica, Los Colores,", "otherBoroughs": "Sin Informacion de Veredas"},
{"postalCode": "050035", "state": "ANTIOQUIA", "city": "MEDELLIN", "locType": "Urbano", "boroughs": "Area de Expansión San Cristóbal, Blanquizal, Calasanz, Calasanz Parte Alta, El Pesebre, Ferrini, Juan XXIII La Quiebra, La Pradera, Los Alcázares, Metropolitano, Olaya Herrera, Santa Rosa de Lima", "otherBoroughs": "Área de Expansión San Cristóbal"},
{"postalCode": "050036", "state": "ANTIOQUIA", "city": "MEDELLIN", "locType": "Urbano", "boroughs": "Cucaracho, Fuente Clara, Robledo, Santa Margarita", "otherBoroughs": "Área de Expansión Pajarito, Cabecera Urbana Corregimiento San Cristóbal,  La Palma,  Las Playas,  Pedregal Alto,  Travesías"},
{"postalCode": "050040", "state": "ANTIOQUIA", "city": "MEDELLIN", "locType": "Urbano", "boroughs": "Alfonso Lopez, Córdoba, Cementerio Universal, Francisco Antonio Zea, Kennedy, Lopez de  Mesa, Oleoducto, Terminal de Transporte", "otherBoroughs": "Sin Informacion de Veredas"},
{"postalCode": "050042", "state": "ANTIOQUIA", "city": "MEDELLIN", "locType": "Urbano", "boroughs": "Belalcázar, Castilla, Girardot, La Esperanza, Pedregal, Tricentenario", "otherBoroughs": "Sin Informacion de Veredas"},
{"postalCode": "050041", "state": "ANTIOQUIA", "city": "MEDELLIN", "locType": "Urbano", "boroughs": "Aures No.1, Aures No.2, Bello Horizonte, El Diamante, Palenque, Villa Flora", "otherBoroughs": "Pajarito"},
{"postalCode": "050001", "state": "ANTIOQUIA", "city": "MEDELLIN", "locType": "Urbano", "boroughs": "Andalucía, La Francia, La Frontera, La Isla, Pablo VI, Playón de Los Comuneros, Villa del Socorro, Villa Niza", "otherBoroughs": "Sin Informacion de Veredas"},
{"postalCode": "050043", "state": "ANTIOQUIA", "city": "MEDELLIN", "locType": "Urbano", "boroughs": "Doce de Octubre No.1, Doce de Octubre No.2, El Triunfo, Mirador del Doce, Picachito, Picacho, Progreso No.2, San Martín de Porres", "otherBoroughs": "Sin Informacion de Veredas"},
{"postalCode": "050022", "state": "ANTIOQUIA", "city": "MEDELLIN", "locType": "Urbano", "boroughs": "Alejandría, Astorga, El Castillo, El Diamante No.2, La Aguacatala, Los Balsos No.1, Los Balsos No.2, Los Naranjos, Patio Bonito, San Lucas, Santa María de Los Ángeles", "otherBoroughs": "Sin Informacion de Veredas"},
{"postalCode": "050017", "state": "ANTIOQUIA", "city": "MEDELLIN", "locType": "Rural", "boroughs": "Sin Informacion de Barrios", "otherBoroughs": "Barro Blanco, El Llano SE,  El Placer,  El Plan,  Mazo,  Perico,  Piedra Gorda"}
]